{"type": "FeatureCollection", "features": [ {"type": "Feature", "properties": {"norad_id": 34468, "name": "COSMOS 2251 DEB", "group": "cosmos-2251-debris", "lat": -68.11794022188583, "lon": 61.25541343258872, "alt_km": 695.4514471261682, "timestamp": "2025-12-18T07:01:54.983964+00:00", "meta": {"OBJECT_NAME": "COSMOS 2251 DEB", "OBJECT_ID": "1993-036TM", "EPOCH": "2025-12-17T14:47:24.844992", "MEAN_MOTION": 14.4763778, "ECCENTRICITY": 0.00763311, "INCLINATION": 74.0129, "RA_OF_ASC_NODE": 108.0683, "ARG_OF_PERICENTER": 251.9996, "MEAN_ANOMALY": 107.2834, "EPHEMERIS_TYPE": 0, "CLASSIFICATION_TYPE": "U", "NORAD_CAT_ID": 34468, "ELEMENT_SET_NO": 999, "REV_AT_EPOCH": 88532, "BSTAR": 0.00029337689, "MEAN_MOTION_DOT": 1.092e-05, "MEAN_MOTION_DDOT": 0}, "tle": {"line1": "1 34468U 93036TM  25351.61625978  .00001092  00000+0  29338-3 0  9995", "line2": "2 34468  74.0129 108.0683 0076331 251.9996 107.2834 14.47637780885325"}}, "geometry": {"type": "Point", "coordinates": [61.25541343258872, -68.11794022188583]}}, {"type": "Feature", "properties": {"norad_id": 34472, "name": "COSMOS 2251 DEB", "group": "cosmos-2251-debris", "lat": -22.759914210565764, "lon": -84.11241353411005, "alt_km": 769.3617984223465, "timestamp": "2025-12-18T07:01:54.983975+00:00", "meta": {"OBJECT_NAME": "COSMOS 2251 DEB", "OBJECT_ID": "1993-036TR", "EPOCH": "2025-12-17T00:14:22.528608", "MEAN_MOTION": 13.7033643, "ECCENTRICITY": 0.0327887, "INCLINATION": 74.0842, "RA_OF_ASC_NODE": 91.1217, "ARG_OF_PERICENTER": 221.2014, "MEAN_ANOMALY": 136.3936, "EPHEMERIS_TYPE": 0, "CLASSIFICATION_TYPE": "U", "NORAD_CAT_ID": 34472, "ELEMENT_SET_NO": 999, "REV_AT_EPOCH": 83785, "BSTAR": 0.00058224753, "MEAN_MOTION_DOT": 7.28e-06, "MEAN_MOTION_DDOT": 0}, "tle": {"line1": "1 34472U 93036TR  25351.00998297  .00000728  00000+0  58225-3 0  9992", "line2": "2 34472  74.0842  91.1217 0327887 221.2014 136.3936 13.70336430837857"}}, "geometry": {"type": "Point", "coordinates": [-84.11241353411005, -22.759914210565764]}}, {"type": "Feature", "properties": {"norad_id": 34474, "name": "COSMOS 2251 DEB", "group": "cosmos-2251-debris", "lat": -21.312006353662785, "lon": -49.911154742275265, "alt_km": 784.085995291789, "timestamp": "2025-12-18T07:01:54.983985+00:00", "meta": {"OBJECT_NAME": "COSMOS 2251 DEB", "OBJECT_ID": "1993-036TT", "EPOCH": "2025-12-17T21:00:35.219232", "MEAN_MOTION": 14.06450336, "ECCENTRICITY": 0.01987715, "INCLINATION": 74.0774, "RA_OF_ASC_NODE": 317.2117, "ARG_OF_PERICENTER": 29.7656, "MEAN_ANOMALY": 356.3688, "EPHEMERIS_TYPE": 0, "CLASSIFICATION_TYPE": "U", "NORAD_CAT_ID": 34474, "ELEMENT_SET_NO": 999, "REV_AT_EPOCH": 85581, "BSTAR": 0.001886195, "MEAN_MOTION_DOT": 3.706e-05, "MEAN_MOTION_DDOT": 0}, "tle": {"line1": "1 34474U 93036TT  25351.87540763  .00003706  00000+0  18862-2 0  9991", "line2": "2 34474  74.0774 317.2117 0198771  29.7656 356.3688 14.06450336855811"}}, "geometry": {"type": "Point", "coordinates": [-49.911154742275265, -21.312006353662785]}}, {"type": "Feature", "properties": {"norad_id": 34476, "name": "COSMOS 2251 DEB", "group": "cosmos-2251-debris", "lat": -1.100492371432803, "lon": -106.53873766043391, "alt_km": 1034.9369383411522, "timestamp": "2025-12-18T07:01:54.983995+00:00", "meta": {"OBJECT_NAME": "COSMOS 2251 DEB", "OBJECT_ID": "1993-036TV", "EPOCH": "2025-12-17T05:48:19.955232", "MEAN_MOTION": 13.82074006, "ECCENTRICITY": 0.03207827, "INCLINATION": 74.0083, "RA_OF_ASC_NODE": 74.9164, "ARG_OF_PERICENTER": 293.5391, "MEAN_ANOMALY": 63.2336, "EPHEMERIS_TYPE": 0, "CLASSIFICATION_TYPE": "U", "NORAD_CAT_ID": 34476, "ELEMENT_SET_NO": 999, "REV_AT_EPOCH": 83700, "BSTAR": 0.0027724319, "MEAN_MOTION_DOT": 4.394e-05, "MEAN_MOTION_DDOT": 0}, "tle": {"line1": "1 34476U 93036TV  25351.24189763  .00004394  00000+0  27724-2 0  9994", "line2": "2 34476  74.0083  74.9164 0320782 293.5391  63.2336 13.82074006837005"}}, "geometry": {"type": "Point", "coordinates": [-106.53873766043391, -1.100492371432803]}}, {"type": "Feature", "properties": {"norad_id": 34477, "name": "COSMOS 2251 DEB", "group": "cosmos-2251-debris", "lat": 44.924507345154204, "lon": -137.73279116717555, "alt_km": 719.371901130542, "timestamp": "2025-12-18T07:01:54.984006+00:00", "meta": {"OBJECT_NAME": "COSMOS 2251 DEB", "OBJECT_ID": "1993-036TW", "EPOCH": "2025-12-17T16:18:55.725696", "MEAN_MOTION": 14.56898331, "ECCENTRICITY": 0.00768703, "INCLINATION": 73.9795, "RA_OF_ASC_NODE": 60.0876, "ARG_OF_PERICENTER": 246.3385, "MEAN_ANOMALY": 272.3705, "EPHEMERIS_TYPE": 0, "CLASSIFICATION_TYPE": "U", "NORAD_CAT_ID": 34477, "ELEMENT_SET_NO": 999, "REV_AT_EPOCH": 88697, "BSTAR": 0.00058949832, "MEAN_MOTION_DOT": 2.722e-05, "MEAN_MOTION_DDOT": 0}, "tle": {"line1": "1 34477U 93036TW  25351.67981164  .00002722  00000+0  58950-3 0  9996", "line2": "2 34477  73.9795  60.0876 0076870 246.3385 272.3705 14.56898331886975"}}, "geometry": {"type": "Point", "coordinates": [-137.73279116717555, 44.924507345154204]}}, {"type": "Feature", "properties": {"norad_id": 34478, "name": "COSMOS 2251 DEB", "group": "cosmos-2251-debris", "lat": -40.557865309895455, "lon": -18.720470698233466, "alt_km": 552.1202368992936, "timestamp": "2025-12-18T07:01:54.984016+00:00", "meta": {"OBJECT_NAME": "COSMOS 2251 DEB", "OBJECT_ID": "1993-036TX", "EPOCH": "2025-12-17T11:11:41.705952", "MEAN_MOTION": 15.08382636, "ECCENTRICITY": 0.00343961, "INCLINATION": 74.0414, "RA_OF_ASC_NODE": 357.1563, "ARG_OF_PERICENTER": 217.3065, "MEAN_ANOMALY": 293.4178, "EPHEMERIS_TYPE": 0, "CLASSIFICATION_TYPE": "U", "NORAD_CAT_ID": 34478, "ELEMENT_SET_NO": 999, "REV_AT_EPOCH": 89044, "BSTAR": 0.0021476012, "MEAN_MOTION_DOT": 0.00033972, "MEAN_MOTION_DDOT": 0}, "tle": {"line1": "1 34478U 93036TX  25351.46645493  .00033972  00000+0  21476-2 0  9999", "line2": "2 34478  74.0414 357.1563 0034396 217.3065 293.4178 15.08382636890448"}}, "geometry": {"type": "Point", "coordinates": [-18.720470698233466, -40.557865309895455]}}, {"type": "Feature", "properties": {"norad_id": 34481, "name": "COSMOS 2251 DEB", "group": "cosmos-2251-debris", "lat": -19.85034368172882, "lon": -130.76294817947908, "alt_km": 739.3296625349758, "timestamp": "2025-12-18T07:01:54.984026+00:00", "meta": {"OBJECT_NAME": "COSMOS 2251 DEB", "OBJECT_ID": "1993-036UA", "EPOCH": "2025-12-17T11:57:29.170656", "MEAN_MOTION": 14.32568603, "ECCENTRICITY": 0.00705706, "INCLINATION": 73.9808, "RA_OF_ASC_NODE": 44.7391, "ARG_OF_PERICENTER": 218.2214, "MEAN_ANOMALY": 205.5243, "EPHEMERIS_TYPE": 0, "CLASSIFICATION_TYPE": "U", "NORAD_CAT_ID": 34481, "ELEMENT_SET_NO": 999, "REV_AT_EPOCH": 87517, "BSTAR": 0.00050850935, "MEAN_MOTION_DOT": 1.392e-05, "MEAN_MOTION_DDOT": 0}, "tle": {"line1": "1 34481U 93036UA  25351.49825429  .00001392  00000+0  50851-3 0  9996", "line2": "2 34481  73.9808  44.7391 0070570 218.2214 205.5243 14.32568603875171"}}, "geometry": {"type": "Point", "coordinates": [-130.76294817947908, -19.85034368172882]}}, {"type": "Feature", "properties": {"norad_id": 34482, "name": "COSMOS 2251 DEB", "group": "cosmos-2251-debris", "lat": 23.202389956032174, "lon": -140.1128540412577, "alt_km": 674.5154559029525, "timestamp": "2025-12-18T07:01:54.984036+00:00", "meta": {"OBJECT_NAME": "COSMOS 2251 DEB", "OBJECT_ID": "1993-036UB", "EPOCH": "2025-12-17T16:28:16.324320", "MEAN_MOTION": 14.69281438, "ECCENTRICITY": 0.00447172, "INCLINATION": 74.0364, "RA_OF_ASC_NODE": 214.0136, "ARG_OF_PERICENTER": 273.0617, "MEAN_ANOMALY": 143.0065, "EPHEMERIS_TYPE": 0, "CLASSIFICATION_TYPE": "U", "NORAD_CAT_ID": 34482, "ELEMENT_SET_NO": 999, "REV_AT_EPOCH": 88260, "BSTAR": 0.0012583049, "MEAN_MOTION_DOT": 7.514e-05, "MEAN_MOTION_DDOT": 0}, "tle": {"line1": "1 34482U 93036UB  25351.68630005  .00007514  00000+0  12583-2 0  9993", "line2": "2 34482  74.0364 214.0136 0044717 273.0617 143.0065 14.69281438882602"}}, "geometry": {"type": "Point", "coordinates": [-140.1128540412577, 23.202389956032174]}}, {"type": "Feature", "properties": {"norad_id": 34544, "name": "COSMOS 2251 DEB", "group": "cosmos-2251-debris", "lat": 41.32667887659289, "lon": 0.3412800067673489, "alt_km": 1020.4095400614106, "timestamp": "2025-12-18T07:01:54.984047+00:00", "meta": {"OBJECT_NAME": "COSMOS 2251 DEB", "OBJECT_ID": "1993-036UE", "EPOCH": "2025-12-17T00:58:52.539168", "MEAN_MOTION": 13.54666176, "ECCENTRICITY": 0.03839215, "INCLINATION": 73.9141, "RA_OF_ASC_NODE": 197.066, "ARG_OF_PERICENTER": 224.7206, "MEAN_ANOMALY": 292.1267, "EPHEMERIS_TYPE": 0, "CLASSIFICATION_TYPE": "U", "NORAD_CAT_ID": 34544, "ELEMENT_SET_NO": 999, "REV_AT_EPOCH": 82940, "BSTAR": 0.00033405424, "MEAN_MOTION_DOT": 3.43e-06, "MEAN_MOTION_DDOT": 0}, "tle": {"line1": "1 34544U 93036UE  25351.04088587  .00000343  00000+0  33405-3 0  9994", "line2": "2 34544  73.9141 197.0660 0383921 224.7206 292.1267 13.54666176829402"}}, "geometry": {"type": "Point", "coordinates": [0.3412800067673489, 41.32667887659289]}}, {"type": "Feature", "properties": {"norad_id": 34546, "name": "COSMOS 2251 DEB", "group": "cosmos-2251-debris", "lat": 69.4326831580244, "lon": 9.090429255971841, "alt_km": 747.2126672507247, "timestamp": "2025-12-18T07:01:54.984058+00:00", "meta": {"OBJECT_NAME": "COSMOS 2251 DEB", "OBJECT_ID": "1993-036UG", "EPOCH": "2025-12-17T21:09:53.678592", "MEAN_MOTION": 14.45433579, "ECCENTRICITY": 0.00220036, "INCLINATION": 74.031, "RA_OF_ASC_NODE": 239.598, "ARG_OF_PERICENTER": 312.887, "MEAN_ANOMALY": 171.6357, "EPHEMERIS_TYPE": 0, "CLASSIFICATION_TYPE": "U", "NORAD_CAT_ID": 34546, "ELEMENT_SET_NO": 999, "REV_AT_EPOCH": 88100, "BSTAR": 0.00044198454, "MEAN_MOTION_DOT": 1.534e-05, "MEAN_MOTION_DDOT": 0}, "tle": {"line1": "1 34546U 93036UG  25351.88187128  .00001534  00000+0  44198-3 0  9993", "line2": "2 34546  74.0310 239.5980 0022003 312.8870 171.6357 14.45433579881003"}}, "geometry": {"type": "Point", "coordinates": [9.090429255971841, 69.4326831580244]}}]}